{
  "norad_id": 54042,
  "name": "YAOGAN-36 02A",
  "history": [
    {
      "epoch": "2026-04-23T09:11:08.267712Z",
      "apogee_km": 516.1955642553103,
      "perigee_km": 478.58999164540637,
      "latitude_deg": 6.544932619488483e-06,
      "longitude_deg": 115.22699898262876,
      "height_km": 487.23203604587513,
      "semi_major_axis_km": 6875.529777950358,
      "eccentricity": 0.00273474,
      "inclination_deg": 35.0056,
      "raan_deg": 104.4422,
      "arg_perigee_deg": 61.3662,
      "mean_anomaly_deg": 298.9799,
      "mean_motion_rev_day": 15.22802254
    },
    {
      "epoch": "2026-04-24T15:04:51.854016Z",
      "apogee_km": 516.0406431247311,
      "perigee_km": 478.62433815666463,
      "latitude_deg": 6.119121868384595e-06,
      "longitude_deg": 17.73712499418803,
      "height_km": 490.72576404734264,
      "semi_major_axis_km": 6875.469490640698,
      "eccentricity": 0.002721,
      "inclination_deg": 35.0056,
      "raan_deg": 96.6117,
      "arg_perigee_deg": 73.0732,
      "mean_anomaly_deg": 287.2963,
      "mean_motion_rev_day": 15.22822283
    },
    {
      "epoch": "2026-04-25T14:40:56.572032Z",
      "apogee_km": 515.9423735890814,
      "perigee_km": 478.5979121518649,
      "latitude_deg": -2.049318667703873e-05,
      "longitude_deg": 16.5659570517245,
      "height_km": 493.60112327678553,
      "semi_major_axis_km": 6875.407142870473,
      "eccentricity": 0.0027158,
      "inclination_deg": 35.0054,
      "raan_deg": 90.4295,
      "arg_perigee_deg": 82.2918,
      "mean_anomaly_deg": 278.0879,
      "mean_motion_rev_day": 15.22842997
    },
    {
      "epoch": "2026-04-26T23:43:24.864672Z",
      "apogee_km": 515.8236876480132,
      "perigee_km": 478.52320339413654,
      "latitude_deg": -1.2646403564934218e-05,
      "longitude_deg": -129.0643708341974,
      "height_km": 497.6987556727962,
      "semi_major_axis_km": 6875.310445521075,
      "eccentricity": 0.00271264,
      "inclination_deg": 35.0053,
      "raan_deg": 81.774,
      "arg_perigee_deg": 95.2033,
      "mean_anomaly_deg": 265.1778,
      "mean_motion_rev_day": 15.22875124
    },
    {
      "epoch": "2026-04-27T21:45:02.203200Z",
      "apogee_km": 515.7787195673727,
      "perigee_km": 478.4406299261582,
      "latitude_deg": 4.490162775179952e-05,
      "longitude_deg": -106.14518389121912,
      "height_km": 500.4126021004415,
      "semi_major_axis_km": 6875.246674746765,
      "eccentricity": 0.0027154,
      "inclination_deg": 35.0053,
      "raan_deg": 76.0033,
      "arg_perigee_deg": 103.843,
      "mean_anomaly_deg": 256.5309,
      "mean_motion_rev_day": 15.22896312
    },
    {
      "epoch": "2026-04-28T21:21:02.323872Z",
      "apogee_km": 515.7578265610446,
      "perigee_km": 478.32934345625745,
      "latitude_deg": -1.6880471281679827e-05,
      "longitude_deg": -107.29789265092688,
      "height_km": 503.21483983018567,
      "semi_major_axis_km": 6875.180585008651,
      "eccentricity": 0.002722,
      "inclination_deg": 35.0055,
      "raan_deg": 69.8204,
      "arg_perigee_deg": 113.059,
      "mean_anomaly_deg": 247.2998,
      "mean_motion_rev_day": 15.22918271
    },
    {
      "epoch": "2026-04-29T20:57:01.271232Z",
      "apogee_km": 515.7699564954664,
      "perigee_km": 478.2015357615219,
      "latitude_deg": -2.072529609298031e-05,
      "longitude_deg": -108.44561736153749,
      "height_km": 505.85730500903486,
      "semi_major_axis_km": 6875.122746128493,
      "eccentricity": 0.0027322,
      "inclination_deg": 35.0057,
      "raan_deg": 63.6375,
      "arg_perigee_deg": 122.2475,
      "mean_anomaly_deg": 238.0892,
      "mean_motion_rev_day": 15.22937489
    },
    {
      "epoch": "2026-04-30T12:40:59.847744Z",
      "apogee_km": 515.7716088976713,
      "perigee_km": 478.10609334275887,
      "latitude_deg": 1.675546180683108e-05,
      "longitude_deg": 10.792338043814071,
      "height_km": 507.4860125016346,
      "semi_major_axis_km": 6875.075851120215,
      "eccentricity": 0.00273928,
      "inclination_deg": 35.0061,
      "raan_deg": 59.5156,
      "arg_perigee_deg": 128.3786,
      "mean_anomaly_deg": 231.9395,
      "mean_motion_rev_day": 15.22953071
    },
    {
      "epoch": "2026-05-02T11:52:51.580416Z",
      "apogee_km": 515.7969876927691,
      "perigee_km": 477.7759110483694,
      "latitude_deg": 1.133831870460149e-05,
      "longitude_deg": 8.522734074577189,
      "height_km": 511.5169465306374,
      "semi_major_axis_km": 6874.923449370569,
      "eccentricity": 0.0027652,
      "inclination_deg": 35.0068,
      "raan_deg": 47.1499,
      "arg_perigee_deg": 146.5164,
      "mean_anomaly_deg": 213.7305,
      "mean_motion_rev_day": 15.23003712
    },
    {
      "epoch": "2026-05-03T20:55:06.309120Z",
      "apogee_km": 515.8203728644885,
      "perigee_km": 477.54961379202814,
      "latitude_deg": -1.758722677982129e-05,
      "longitude_deg": -137.0514791618798,
      "height_km": 513.4513229912341,
      "semi_major_axis_km": 6874.821993328258,
      "eccentricity": 0.0027834,
      "inclination_deg": 35.0072,
      "raan_deg": 38.4939,
      "arg_perigee_deg": 159.1143,
      "mean_anomaly_deg": 201.0714,
      "mean_motion_rev_day": 15.23037426
    },
    {
      "epoch": "2026-05-04T20:30:58.144032Z",
      "apogee_km": 515.8528943343817,
      "perigee_km": 477.39136690222585,
      "latitude_deg": -6.486841588911142e-07,
      "longitude_deg": -138.16966176582002,
      "height_km": 514.3338304823556,
      "semi_major_axis_km": 6874.759130618304,
      "eccentricity": 0.0027973,
      "inclination_deg": 35.0075,
      "raan_deg": 32.3108,
      "arg_perigee_deg": 168.0728,
      "mean_anomaly_deg": 192.0654,
      "mean_motion_rev_day": 15.23058316
    },
    {
      "epoch": "2026-05-05T20:06:48.570624Z",
      "apogee_km": 515.8803973831536,
      "perigee_km": 477.21305130720157,
      "latitude_deg": -6.7321897609451005e-06,
      "longitude_deg": -139.28229330137555,
      "height_km": 514.7564664961163,
      "semi_major_axis_km": 6874.683724345177,
      "eccentricity": 0.0028123,
      "inclination_deg": 35.0077,
      "raan_deg": 26.1274,
      "arg_perigee_deg": 177.0387,
      "mean_anomaly_deg": 183.0498,
      "mean_motion_rev_day": 15.23083375
    },
    {
      "epoch": "2026-05-06T21:17:01.046688Z",
      "apogee_km": 515.9390576973674,
      "perigee_km": 477.0383008286899,
      "latitude_deg": 4.282571764955599e-05,
      "longitude_deg": -164.46361114245653,
      "height_km": 514.717837845368,
      "semi_major_axis_km": 6874.625679263028,
      "eccentricity": 0.0028293,
      "inclination_deg": 35.0079,
      "raan_deg": 19.5317,
      "arg_perigee_deg": 186.5398,
      "mean_anomaly_deg": 173.4951,
      "mean_motion_rev_day": 15.23102665
    },
    {
      "epoch": "2026-05-07T19:18:26.181216Z",
      "apogee_km": 516.000849682453,
      "perigee_km": 476.8899754209642,
      "latitude_deg": -2.344394764410328e-05,
      "longitude_deg": -141.4944147536329,
      "height_km": 514.2573998662576,
      "semi_major_axis_km": 6874.582412551708,
      "eccentricity": 0.0028446,
      "inclination_deg": 35.008,
      "raan_deg": 13.7602,
      "arg_perigee_deg": 194.8077,
      "mean_anomaly_deg": 165.1806,
      "mean_motion_rev_day": 15.23117044
    },
    {
      "epoch": "2026-05-08T20:28:36.818688Z",
      "apogee_km": 516.0753092569912,
      "perigee_km": 476.71037647078447,
      "latitude_deg": 2.0660253717027085e-05,
      "longitude_deg": -166.66855763765074,
      "height_km": 513.2474759022042,
      "semi_major_axis_km": 6874.529842863888,
      "eccentricity": 0.0028631,
      "inclination_deg": 35.008,
      "raan_deg": 7.164,
      "arg_perigee_deg": 204.2167,
      "mean_anomaly_deg": 155.7203,
      "mean_motion_rev_day": 15.23134515
    },
    {
      "epoch": "2026-05-09T20:04:23.474784Z",
      "apogee_km": 516.097770140902,
      "perigee_km": 476.6079505870266,
      "latitude_deg": -4.647855268082794e-06,
      "longitude_deg": -167.76556136589264,
      "height_km": 511.8092861255844,
      "semi_major_axis_km": 6874.489860363964,
      "eccentricity": 0.0028722,
      "inclination_deg": 35.008,
      "raan_deg": 0.9805,
      "arg_perigee_deg": 213.019,
      "mean_anomaly_deg": 146.8731,
      "mean_motion_rev_day": 15.23147803
    },
    {
      "epoch": "2026-05-10T21:14:32.485344Z",
      "apogee_km": 516.1386314140036,
      "perigee_km": 476.4854345020958,
      "latitude_deg": -1.2954017837603578e-05,
      "longitude_deg": 167.06742055689458,
      "height_km": 509.85277067629625,
      "semi_major_axis_km": 6874.449032958049,
      "eccentricity": 0.0028841,
      "inclination_deg": 35.008,
      "raan_deg": 354.3847,
      "arg_perigee_deg": 222.3802,
      "mean_anomaly_deg": 137.4684,
      "mean_motion_rev_day": 15.23161372
    },
    {
      "epoch": "2026-05-11T20:50:17.826432Z",
      "apogee_km": 516.1943168051912,
      "perigee_km": 476.3612079061968,
      "latitude_deg": -1.2803962282842147e-05,
      "longitude_deg": 165.9753490213294,
      "height_km": 507.67675377394795,
      "semi_major_axis_km": 6874.414762355694,
      "eccentricity": 0.0028972,
      "inclination_deg": 35.0078,
      "raan_deg": 348.2006,
      "arg_perigee_deg": 231.0893,
      "mean_anomaly_deg": 128.7237,
      "mean_motion_rev_day": 15.23172762
    },
    {
      "epoch": "2026-05-12T20:26:02.631840Z",
      "apogee_km": 516.2772989666873,
      "perigee_km": 476.206544232683,
      "latitude_deg": -1.4665701390473387e-05,
      "longitude_deg": 164.88531337770274,
      "height_km": 505.226773483546,
      "semi_major_axis_km": 6874.378921599685,
      "eccentricity": 0.0029145,
      "inclination_deg": 35.0077,
      "raan_deg": 342.0163,
      "arg_perigee_deg": 239.7231,
      "mean_anomaly_deg": 120.0598,
      "mean_motion_rev_day": 15.23184674
    }
  ]
}